TDRS 3                  
1 19548U 88091B   26110.49501625 -.00000302  00000+0  00000+0 0  9999
2 19548  12.6463 341.3832 0041038 355.2794   1.2073  1.00276665124807
FLTSATCOM 8 (USA 46)    
1 20253U 89077A   26110.62238458 -.00000372  00000+0  00000+0 0  9992
2 20253  12.4378 351.5117 0007635   5.8516 200.8812  1.00263262259984
SKYNET 4C               
1 20776U 90079A   26109.81155811  .00000125  00000+0  00000+0 0  9991
2 20776  13.3594 350.2124 0002537  38.8052 144.4523  1.00274887130306
TDRS 5                  
1 21639U 91054B   26110.40012023  .00000080  00000+0  00000+0 0  9998
2 21639  14.0793 354.2073 0008414 283.4509 267.2366  1.00267755127138
TDRS 6                  
1 22314U 93003B   26110.31245152 -.00000298  00000+0  00000+0 0  9998
2 22314  14.1824 357.4906 0005682 181.4856  96.1028  1.00275894121828
UFO 2 (USA 95)          
1 22787U 93056A   26109.86865516  .00000124  00000+0  00000+0 0  9997
2 22787  11.8753   3.8747 0009020 351.8856 193.5668  1.00275430117963
USA 99 (MILSTAR-1 1)    
1 22988U 94009A   26110.27287016 -.00000202  00000+0  00000+0 0  9997
2 22988  17.5321  28.3369 0003334 344.7485 203.5123  1.00273788 32376
UFO 4 (USA 108)         
1 23467U 95003A   26110.56941872 -.00000025  00000+0  00000+0 0  9997
2 23467   9.7097  13.4227 0003527  13.1393 199.3642  1.00272229114377
TDRS 7                  
1 23613U 95035B   26110.61416550 -.00000243  00000+0  00000+0 0  9993
2 23613  13.4015 348.5874 0010868  62.8147 107.3318  1.00279737112677
USA 115 (MILSTAR-1 2)   
1 23712U 95060A   26110.43297479 -.00000075  00000+0  00000+0 0  9991
2 23712  14.0534   4.1792 0000872 317.8953 288.5440  1.00365159 32309
INMARSAT 3-F1           
1 23839U 96020A   26110.14113631 -.00000270  00000+0  00000+0 0  9990
2 23839  10.4831  47.1603 0004256 325.2945 211.0182  0.99997072109672
INMARSAT 3-F2           
1 24307U 96053A   26110.52267191  .00000115  00000+0  00000+0 0  9997
2 24307   9.7289  54.5147 0006719 340.1778 207.7800  0.99991553108342
INMARSAT 3-F3           
1 24674U 96070A   26109.81228860 -.00000289  00000+0  00000+0 0  9996
2 24674  10.1946  50.2013 0005062 316.3648 238.3687  0.99981216107326
AMC-3                   
1 24936U 97050A   26110.48590653 -.00000262  00000+0  00000+0 0  9994
2 24936   8.0062  64.7306 0002979 325.8295 280.9338  1.00270107 51859
USA 134                 
1 25019U 97065A   26110.33971332 -.00000064  00000+0  00000+0 0  9994
2 25019  12.7173  22.1532 0005942 320.8817 235.2969  1.00274541 32379
INMARSAT 3-F5           
1 25153U 98006B   26110.27997686 -.00000291  00000+0  00000+0 0  9994
2 25153   9.5664  53.8216 0004749 331.9930 229.3450  1.00273884103311
ABS-6                   
1 25924U 99053A   26110.48462499 -.00000119  00000+0  00000+0 0  9994
2 25924   0.0338  96.7575 0003204 312.7053 132.5913  1.00279073 97264
UFO 10 (USA 146)        
1 25967U 99063A   26107.12127912 -.00000179  00000+0  00000+0 0  9993
2 25967   9.8559  27.5336 0003913 326.7730 231.8326  1.00274470 96732
ASIASTAR                
1 26107U 00016A   26110.49734047 -.00000334  00000+0  00000+0 0  9990
2 26107   8.9981  58.7597 0004798 336.5234  97.3583  1.00269921 95344
USA 149 (DSP 20)        
1 26356U 00024A   26110.42205957  .00000092  00000+0  00000+0 0  9991
2 26356  13.1287  12.2610 0001293 334.7145 208.1108  1.00273231 32330
TDRS 8                  
1 26388U 00034A   26110.62187216 -.00000195  00000+0  00000+0 0  9991
2 26388  12.5950  31.8053 0005703 342.4278 143.0209  1.00267521 94608
NSS-11                  
1 26554U 00059A   26110.53955777  .00000023  00000+0  00000+0 0  9997
2 26554   1.9783  82.0290 0002623 301.0178 195.8168  1.00268428 40717
USA 153                 
1 26575U 00065A   26110.60059609 -.00000326  00000+0  00000+0 0  9991
2 26575  11.5280  35.8924 0003543  27.7331 135.7979  1.00269823 32358
AMC-6                   
1 26580U 00067A   26110.61291184  .00000086  00000+0  00000+0 0  9998
2 26580   0.0792  68.4352 0003662 334.6545 251.2187  1.00271963 93317
USA 157 (MILSTAR-2 2)   
1 26715U 01009A   26110.47433719  .00000108  00000+0  00000+0 0  9996
2 26715  11.4809  20.1188 0037871 181.6267  27.5025  1.00273598 32363
USA 159 (DSP 21)        
1 26880U 01033A   26110.62841484 -.00000302  00000+0  00000+0 0  9992
2 26880  12.7287  16.8261 0000189 206.6486 342.7871  0.99200736 32381
INTELSAT 902 (IS-902)   
1 26900U 01039A   26110.32817543 -.00000283  00000+0  00000+0 0  9995
2 26900   5.9729  72.4746 0004655 315.2533 248.7345  1.00270731 90118
USA 164 (MILSTAR-2 3)   
1 27168U 02001A   26109.96155870  .00000098  00000+0  00000+0 0  9991
2 27168  11.1117  22.2578 0099611   6.5515 184.4168  1.00276680 32379
INTELSAT 904 (IS-904)   
1 27380U 02007A   26110.28448355 -.00000225  00000+0  00000+0 0  9996
2 27380   6.7770  69.8630 0007388 334.4961 234.9649  1.00270725 51183
DIRECTV 5 (TEMPO 1)     
1 27426U 02023A   26110.55411782 -.00000057  00000+0  00000+0 0  9992
2 27426   4.7319  76.0067 0003313 309.9302 272.0862  1.00271613 87541
INTELSAT 905 (IS-905)   
1 27438U 02027A   26110.47750950  .00000094  00000+0  00000+0 0  9993
2 27438   6.6102  70.4785 0003001 331.1791 201.6161  1.00273306 50780
GALAXY 3C (G-3C)        
1 27445U 02030A   26110.55715118 -.00000153  00000+0  00000+0 0  9998
2 27445   3.5817  78.7471 0001366  30.8737 204.7360  1.00270945 45915
INTELSAT 906 (IS-906)   
1 27513U 02041A   26110.51737634  .00000013  00000+0  00000+0 0  9993
2 27513   5.6578  73.6160 0003867 331.5185  53.8751  1.00273068 86453
NIMIQ 2                 
1 27632U 02062A   26109.91268204 -.00000068  00000+0  00000+0 0  9993
2 27632   9.3136  57.5040 0005945 329.4673  40.4390  1.00275243 43609
USA 167                 
1 27691U 03008A   26109.45524350  .00000009  00000+0  00000+0 0  9999
2 27691  10.8471  43.9250 0005080 300.1882 265.1552  1.00269424  6185
USA 169 (MILSTAR-2 4)   
1 27711U 03012A   26109.64087463 -.00000236  00000+0  00000+0 0  9990
2 27711  12.2629  30.3111 0101471   6.0680 194.2022  1.00273054 32361
ASIASAT 4               
1 27718U 03014A   26110.23447625 -.00000221  00000+0  00000+0 0  9990
2 27718   4.5576  76.4564 0002782 319.6513  44.1860  1.00272436 44728
HELLAS-SAT 2            
1 27811U 03020A   26110.20877957 -.00000083  00000+0  00000+0 0  9999
2 27811   7.2122  68.5621 0004724 281.4018 283.5049  1.00271609 42265
THURAYA-2               
1 27825U 03026A   26110.44206270  .00000123  00000+0  00000+0 0  9994
2 27825   8.7536  32.2092 0003585 341.2102  38.2583  1.00273499 83776
OPTUS C1                
1 27831U 03028B   26110.59495061 -.00000152  00000+0  00000+0 0  9990
2 27831   6.7474  70.0911 0005958 317.7061 190.8068  1.00270391 52485
USA 170                 
1 27875U 03040A   26110.01035578  .00000127  00000+0  00000+0 0  9993
2 27875  10.3795  48.4875 0001724  13.6388 173.9575  1.00276196 32414
GALAXY 13 (HORIZONS-1)  
1 27954U 03044A   26110.54623112  .00000132  00000+0  00000+0 0  9996
2 27954   1.2705  84.5503 0002238 304.7557 225.9618  1.00270649 45994
YAMAL 202               
1 28089U 03053A   26110.60843830 -.00000080  00000+0  00000+0 0  9997
2 28089   6.1984  71.6243 0004047 292.0862 227.6071  1.00271376 82129
UFO 11 (USA 174)        
1 28117U 03057A   26110.62263006 -.00000105  00000+0  00000+0 0  9994
2 28117   8.9243  34.1087 0002879 341.1755 132.9990  1.00272138 81873
USA 176 (DSP 22)        
1 28158U 04004A   26110.27405948 -.00000270  00000+0  00000+0 0  9999
2 28158  11.9858  26.4948 0002052 290.5993 272.7546  1.00425572 32359
ABS-4 (MOBISAT-1)       
1 28184U 04007A   26110.51676968  .00000039  00000+0  00000+0 0  9992
2 28184   5.8973  72.6946 0005457 319.2175  63.6920  1.00271268 51762
EUTELSAT 139 WEST A     
1 28187U 04008A   26110.36847300 -.00000191  00000+0  00000+0 0  9999
2 28187   5.6843  72.5892 0000613 138.3333  83.5204  0.98807808 80784
AMC-11                  
1 28252U 04017A   26107.62211809 -.00000023  00000+0  00000+0 0  9990
2 28252   0.1523  81.6283 0007439  53.1654 183.6299  1.00144290 80251
INTELSAT 10-02          
1 28358U 04022A   26110.57573642 -.00000013  00000+0  00000+0 0  9996
2 28358   0.0414  65.5124 0001141 354.0582 355.3475  1.00269164 79977
ANIK F2                 
1 28378U 04027A   26110.55394449 -.00000050  00000+0  00000+0 0  9998
2 28378   3.1379  80.1859 0004034 328.4670 248.2880  1.00270861 40680
AMC-15                  
1 28446U 04041A   26110.48725089 -.00000090  00000+0  00000+0 0  9994
2 28446   0.0583  61.6414 0002183 343.8656 233.4338  1.00271363 78726
NSS-10                  
1 28526U 05003A   26110.41458828 -.00000251  00000+0  00000+0 0  9998
2 28526   6.3063  71.1364 0003007 306.8701 302.3062  1.00270564 52570
INMARSAT 4-F1           
1 28628U 05009A   26110.11210287  .00000033  00000+0  00000+0 0  9996
2 28628   5.0899  42.6738 0002655 335.1517  48.8063  1.00272148 77099
DIRECTV 8               
1 28659U 05019A   26110.61781687 -.00000001  00000+0  00000+0 0  9999
2 28659   0.0129 254.8289 0003088 142.1024 275.1332  1.00271843 76490
GALAXY 28 (G-28)        
1 28702U 05022A   26110.42802264 -.00000201  00000+0  00000+0 0  9998
2 28702   3.1508  79.6125 0002895 301.3962 314.5061  1.00268974 51391
THAICOM 4               
1 28786U 05028A   26110.55894330 -.00000364  00000+0  00000+0 0  9995
2 28786   0.0971  83.0888 0001820 309.8859 136.3914  1.00270422 51672
ANIK F1R                
1 28868U 05036A   26110.55472450 -.00000075  00000+0  00000+0 0  9999
2 28868   4.1662  77.2706 0003094 320.6073 263.1837  1.00271502 45871
SYRACUSE 3A             
1 28885U 05041B   26110.51382300  .00000130  00000+0  00000+0 0  9995
2 28885   4.4973  76.5349 0003814 311.9052  51.3349  1.00273802 75179
INMARSAT 4-F2           
1 28899U 05044A   26110.57110343 -.00000262  00000+0  00000+0 0  9992
2 28899   5.0206  43.7449 0002472 336.1679 177.8355  1.00269677 74940
